CCSDS_OMM_VERS = 2.0
CREATION_DATE  = 
ORIGINATOR     = 

OBJECT_NAME    = CYGNUS NG-23
OBJECT_ID      = 2025-208A
CENTER_NAME    = EARTH
REF_FRAME      = TEME
TIME_SYSTEM    = UTC
MEAN_ELEMENT_THEORY = SGP/SGP4

EPOCH          = 2025-12-15T21:28:14.919168
MEAN_MOTION    = 15.49611341
ECCENTRICITY   = .0003169
INCLINATION    = 51.6305
RA_OF_ASC_NODE = 126.8563
ARG_OF_PERICENTER = 254.4589
MEAN_ANOMALY   = 105.6050

EPHEMERIS_TYPE = 0
CLASSIFICATION_TYPE = U
NORAD_CAT_ID   = 65616
ELEMENT_SET_NO = 999
REV_AT_EPOCH   = 22
BSTAR          = .12896231E-3
MEAN_MOTION_DOT = .6813E-4
MEAN_MOTION_DDOT = 0

CCSDS_OMM_VERS = 2.0
CREATION_DATE  = 
ORIGINATOR     = 

OBJECT_NAME    = DRAGONFLY
OBJECT_ID      = 1998-067XH
CENTER_NAME    = EARTH
REF_FRAME      = TEME
TIME_SYSTEM    = UTC
MEAN_ELEMENT_THEORY = SGP/SGP4

EPOCH          = 2025-12-15T15:53:06.024192
MEAN_MOTION    = 15.72920321
ECCENTRICITY   = .00070154
INCLINATION    = 51.6241
RA_OF_ASC_NODE = 120.7881
ARG_OF_PERICENTER = 296.9718
MEAN_ANOMALY   = 63.0564

EPHEMERIS_TYPE = 0
CLASSIFICATION_TYPE = U
NORAD_CAT_ID   = 65729
ELEMENT_SET_NO = 999
REV_AT_EPOCH   = 1362
BSTAR          = .9891931E-3
MEAN_MOTION_DOT = .139257E-2
MEAN_MOTION_DDOT = 0

CCSDS_OMM_VERS = 2.0
CREATION_DATE  = 
ORIGINATOR     = 

OBJECT_NAME    = 1998-067XK
OBJECT_ID      = 1998-067XK
CENTER_NAME    = EARTH
REF_FRAME      = TEME
TIME_SYSTEM    = UTC
MEAN_ELEMENT_THEORY = SGP/SGP4

EPOCH          = 2025-12-15T17:36:02.993472
MEAN_MOTION    = 15.66333624
ECCENTRICITY   = .00048129
INCLINATION    = 51.6281
RA_OF_ASC_NODE = 122.0366
ARG_OF_PERICENTER = 264.6574
MEAN_ANOMALY   = 95.3872

EPHEMERIS_TYPE = 0
CLASSIFICATION_TYPE = U
NORAD_CAT_ID   = 65731
ELEMENT_SET_NO = 999
REV_AT_EPOCH   = 1361
BSTAR          = .74239237E-3
MEAN_MOTION_DOT = .78692E-3
MEAN_MOTION_DDOT = 0

CCSDS_OMM_VERS = 2.0
CREATION_DATE  = 
ORIGINATOR     = 

OBJECT_NAME    = RSP-03
OBJECT_ID      = 1998-067XL
CENTER_NAME    = EARTH
REF_FRAME      = TEME
TIME_SYSTEM    = UTC
MEAN_ELEMENT_THEORY = SGP/SGP4

EPOCH          = 2025-12-15T09:56:23.959680
MEAN_MOTION    = 15.69333488
ECCENTRICITY   = .00056309
INCLINATION    = 51.6255
RA_OF_ASC_NODE = 122.8946
ARG_OF_PERICENTER = 270.0098
MEAN_ANOMALY   = 90.0254

EPHEMERIS_TYPE = 0
CLASSIFICATION_TYPE = U
NORAD_CAT_ID   = 65732
ELEMENT_SET_NO = 999
REV_AT_EPOCH   = 1358
BSTAR          = .85708712E-3
MEAN_MOTION_DOT = .103156E-2
MEAN_MOTION_DDOT = 0

CCSDS_OMM_VERS = 2.0
CREATION_DATE  = 
ORIGINATOR     = 

OBJECT_NAME    = GHS-01
OBJECT_ID      = 1998-067XM
CENTER_NAME    = EARTH
REF_FRAME      = TEME
TIME_SYSTEM    = UTC
MEAN_ELEMENT_THEORY = SGP/SGP4

EPOCH          = 2025-12-15T17:38:00.008448
MEAN_MOTION    = 15.76152522
ECCENTRICITY   = .00075996
INCLINATION    = 51.6274
RA_OF_ASC_NODE = 119.7831
ARG_OF_PERICENTER = 301.7085
MEAN_ANOMALY   = 58.3173

EPHEMERIS_TYPE = 0
CLASSIFICATION_TYPE = U
NORAD_CAT_ID   = 65733
ELEMENT_SET_NO = 999
REV_AT_EPOCH   = 1365
BSTAR          = .11101643E-2
MEAN_MOTION_DOT = .180872E-2
MEAN_MOTION_DDOT = 0

CCSDS_OMM_VERS = 2.0
CREATION_DATE  = 
ORIGINATOR     = 

OBJECT_NAME    = YOTSUBA-KULOVER
OBJECT_ID      = 1998-067XN
CENTER_NAME    = EARTH
REF_FRAME      = TEME
TIME_SYSTEM    = UTC
MEAN_ELEMENT_THEORY = SGP/SGP4

EPOCH          = 2025-12-15T18:54:55.792800
MEAN_MOTION    = 15.59882351
ECCENTRICITY   = .00014577
INCLINATION    = 51.6281
RA_OF_ASC_NODE = 124.6502
ARG_OF_PERICENTER = 281.9175
MEAN_ANOMALY   = 78.1654

EPHEMERIS_TYPE = 0
CLASSIFICATION_TYPE = U
NORAD_CAT_ID   = 65941
ELEMENT_SET_NO = 999
REV_AT_EPOCH   = 1033
BSTAR          = .65176428E-3
MEAN_MOTION_DOT = .53323E-3
MEAN_MOTION_DDOT = 0

CCSDS_OMM_VERS = 2.0
CREATION_DATE  = 
ORIGINATOR     = 

OBJECT_NAME    = BOTAN
OBJECT_ID      = 1998-067XP
CENTER_NAME    = EARTH
REF_FRAME      = TEME
TIME_SYSTEM    = UTC
MEAN_ELEMENT_THEORY = SGP/SGP4

EPOCH          = 2025-12-15T15:48:54.878400
MEAN_MOTION    = 15.63514528
ECCENTRICITY   = .00029297
INCLINATION    = 51.6278
RA_OF_ASC_NODE = 124.5376
ARG_OF_PERICENTER = 262.4016
MEAN_ANOMALY   = 97.6646

EPHEMERIS_TYPE = 0
CLASSIFICATION_TYPE = U
NORAD_CAT_ID   = 65942
ELEMENT_SET_NO = 999
REV_AT_EPOCH   = 1032
BSTAR          = .87407179E-3
MEAN_MOTION_DOT = .82884E-3
MEAN_MOTION_DDOT = 0

CCSDS_OMM_VERS = 2.0
CREATION_DATE  = 
ORIGINATOR     = 

OBJECT_NAME    = E-KAGAKU-1
OBJECT_ID      = 1998-067XQ
CENTER_NAME    = EARTH
REF_FRAME      = TEME
TIME_SYSTEM    = UTC
MEAN_ELEMENT_THEORY = SGP/SGP4

EPOCH          = 2025-12-15T15:50:32.577792
MEAN_MOTION    = 15.59851021
ECCENTRICITY   = .00016366
INCLINATION    = 51.6292
RA_OF_ASC_NODE = 125.2990
ARG_OF_PERICENTER = 221.4661
MEAN_ANOMALY   = 138.6208

EPHEMERIS_TYPE = 0
CLASSIFICATION_TYPE = U
NORAD_CAT_ID   = 65943
ELEMENT_SET_NO = 999
REV_AT_EPOCH   = 1031
BSTAR          = .6409113E-3
MEAN_MOTION_DOT = .52357E-3
MEAN_MOTION_DDOT = 0

CCSDS_OMM_VERS = 2.0
CREATION_DATE  = 
ORIGINATOR     = 

OBJECT_NAME    = HRC MONOBLOCK CAMERA
OBJECT_ID      = 1998-067XR
CENTER_NAME    = EARTH
REF_FRAME      = TEME
TIME_SYSTEM    = UTC
MEAN_ELEMENT_THEORY = SGP/SGP4

EPOCH          = 2025-12-15T22:19:37.394688
MEAN_MOTION    = 15.54370373
ECCENTRICITY   = .00028854
INCLINATION    = 51.6289
RA_OF_ASC_NODE = 125.5959
ARG_OF_PERICENTER = 198.9504
MEAN_ANOMALY   = 161.1379

EPHEMERIS_TYPE = 0
CLASSIFICATION_TYPE = U
NORAD_CAT_ID   = 66052
ELEMENT_SET_NO = 999
REV_AT_EPOCH   = 933
BSTAR          = .46656817E-3
MEAN_MOTION_DOT = .30802E-3
MEAN_MOTION_DDOT = 0

CCSDS_OMM_VERS = 2.0
CREATION_DATE  = 
ORIGINATOR     = 

OBJECT_NAME    = HTV-X1
OBJECT_ID      = 2025-241A
CENTER_NAME    = EARTH
REF_FRAME      = TEME
TIME_SYSTEM    = UTC
MEAN_ELEMENT_THEORY = SGP/SGP4

EPOCH          = 2025-12-15T21:28:14.919168
MEAN_MOTION    = 15.49611341
ECCENTRICITY   = .0003169
INCLINATION    = 51.6305
RA_OF_ASC_NODE = 126.8563
ARG_OF_PERICENTER = 254.4589
MEAN_ANOMALY   = 105.6050

EPHEMERIS_TYPE = 0
CLASSIFICATION_TYPE = U
NORAD_CAT_ID   = 66174
ELEMENT_SET_NO = 999
REV_AT_EPOCH   = 51
BSTAR          = .12896231E-3
MEAN_MOTION_DOT = .6813E-4
MEAN_MOTION_DDOT = 0

CCSDS_OMM_VERS = 2.0
CREATION_DATE  = 
ORIGINATOR     = 

OBJECT_NAME    = SZ-21 MODULE
OBJECT_ID      = 2025-246C
CENTER_NAME    = EARTH
REF_FRAME      = TEME
TIME_SYSTEM    = UTC
MEAN_ELEMENT_THEORY = SGP/SGP4

EPOCH          = 2025-12-15T17:38:17.166624
MEAN_MOTION    = 15.62644262
ECCENTRICITY   = .00061674
INCLINATION    = 41.4776
RA_OF_ASC_NODE = 357.7735
ARG_OF_PERICENTER = 275.8419
MEAN_ANOMALY   = 84.1717

EPHEMERIS_TYPE = 0
CLASSIFICATION_TYPE = U
NORAD_CAT_ID   = 66515
ELEMENT_SET_NO = 999
REV_AT_EPOCH   = 491
BSTAR          = .22577355E-3
MEAN_MOTION_DOT = .20523E-3
MEAN_MOTION_DDOT = 0

CCSDS_OMM_VERS = 2.0
CREATION_DATE  = 
ORIGINATOR     = 

OBJECT_NAME    = SHENZHOU-22
OBJECT_ID      = 2025-272A
CENTER_NAME    = EARTH
REF_FRAME      = TEME
TIME_SYSTEM    = UTC
MEAN_ELEMENT_THEORY = SGP/SGP4

EPOCH          = 2025-12-15T17:24:02.570400
MEAN_MOTION    = 15.59304358
ECCENTRICITY   = .00079014
INCLINATION    = 41.4685
RA_OF_ASC_NODE = 358.5824
ARG_OF_PERICENTER = 56.1338
MEAN_ANOMALY   = 304.0252

EPHEMERIS_TYPE = 0
CLASSIFICATION_TYPE = U
NORAD_CAT_ID   = 66645
ELEMENT_SET_NO = 999
REV_AT_EPOCH   = 26357
BSTAR          = .18266576E-3
MEAN_MOTION_DOT = .14504E-3
MEAN_MOTION_DDOT = 0

