CYGNUS NG-23            
1 65616U 25208A   25349.89461712  .00006813  00000+0  12896-3 0  9998
2 65616  51.6305 126.8563 0003169 254.4589 105.6050 15.49611341   229
DRAGONFLY               
1 65729U 98067XH  25349.66187528  .00139257  00000+0  98919-3 0  9990
2 65729  51.6241 120.7881 0007015 296.9718  63.0564 15.72920321 13620
1998-067XK              
1 65731U 98067XK  25349.73336798  .00078692  00000+0  74239-3 0  9990
2 65731  51.6281 122.0366 0004812 264.6574  95.3872 15.66333624 13610
RSP-03                  
1 65732U 98067XL  25349.41416620  .00103156  00000+0  85709-3 0  9997
2 65732  51.6255 122.8946 0005630 270.0098  90.0254 15.69333488 13588
GHS-01                  
1 65733U 98067XM  25349.73472232  .00180872  00000+0  11102-2 0  9999
2 65733  51.6274 119.7831 0007599 301.7085  58.3173 15.76152522 13653
YOTSUBA-KULOVER         
1 65941U 98067XN  25349.78814575  .00053323  00000+0  65176-3 0  9996
2 65941  51.6281 124.6502 0001457 281.9175  78.1654 15.59882351 10335
BOTAN                   
1 65942U 98067XP  25349.65896850  .00082884  00000+0  87407-3 0  9994
2 65942  51.6278 124.5376 0002929 262.4016  97.6646 15.63514528 10322
E-KAGAKU-1              
1 65943U 98067XQ  25349.66009928  .00052357  00000+0  64091-3 0  9994
2 65943  51.6292 125.2990 0001636 221.4661 138.6208 15.59851021 10310
HRC MONOBLOCK CAMERA    
1 66052U 98067XR  25349.93029392  .00030802  00000+0  46657-3 0  9992
2 66052  51.6289 125.5959 0002885 198.9504 161.1379 15.54370373  9338
HTV-X1                  
1 66174U 25241A   25349.89461712  .00006813  00000+0  12896-3 0  9995
2 66174  51.6305 126.8563 0003169 254.4589 105.6050 15.49611341   511
SZ-21 MODULE            
1 66515U 25246C   25349.73492091  .00020523  00000+0  22577-3 0  9997
2 66515  41.4776 357.7735 0006167 275.8419  84.1717 15.62644262  4917
SHENZHOU-22             
1 66645U 25272A   25349.72502975  .00014504  00000+0  18267-3 0  9995
2 66645  41.4685 358.5824 0007901  56.1338 304.0252 15.59304358263577
